CCSDS_OMM_VERS = 2.0
CREATION_DATE  = 
ORIGINATOR     = 

OBJECT_NAME    = STARLINK-37125
OBJECT_ID      = 2026-055Q
CENTER_NAME    = EARTH
REF_FRAME      = TEME
TIME_SYSTEM    = UTC
MEAN_ELEMENT_THEORY = SGP/SGP4

EPOCH          = 2026-03-28T14:00:01.999872
MEAN_MOTION    = 15.97344678
ECCENTRICITY   = .00008761
INCLINATION    = 53.1579
RA_OF_ASC_NODE = 242.8650
ARG_OF_PERICENTER = 64.2513
MEAN_ANOMALY   = 29.3731

EPHEMERIS_TYPE = 0
CLASSIFICATION_TYPE = U
NORAD_CAT_ID   = 68276
ELEMENT_SET_NO = 999
REV_AT_EPOCH   = 267
BSTAR          = -.27940402E-2
MEAN_MOTION_DOT = -.1262142E-1
MEAN_MOTION_DDOT = .49272679E-3

CCSDS_OMM_VERS = 2.0
CREATION_DATE  = 
ORIGINATOR     = 

OBJECT_NAME    = STARLINK-36989
OBJECT_ID      = 2026-055R
CENTER_NAME    = EARTH
REF_FRAME      = TEME
TIME_SYSTEM    = UTC
MEAN_ELEMENT_THEORY = SGP/SGP4

EPOCH          = 2026-03-28T14:00:01.999872
MEAN_MOTION    = 15.97696608
ECCENTRICITY   = .00007285
INCLINATION    = 53.1579
RA_OF_ASC_NODE = 242.8444
ARG_OF_PERICENTER = 76.1707
MEAN_ANOMALY   = 27.4180

EPHEMERIS_TYPE = 0
CLASSIFICATION_TYPE = U
NORAD_CAT_ID   = 68277
ELEMENT_SET_NO = 999
REV_AT_EPOCH   = 267
BSTAR          = -.27518197E-2
MEAN_MOTION_DOT = -.1267478E-1
MEAN_MOTION_DDOT = .49835099E-3

CCSDS_OMM_VERS = 2.0
CREATION_DATE  = 
ORIGINATOR     = 

OBJECT_NAME    = STARLINK-36982
OBJECT_ID      = 2026-055S
CENTER_NAME    = EARTH
REF_FRAME      = TEME
TIME_SYSTEM    = UTC
MEAN_ELEMENT_THEORY = SGP/SGP4

EPOCH          = 2026-03-28T14:00:01.999872
MEAN_MOTION    = 15.97583556
ECCENTRICITY   = .00007785
INCLINATION    = 53.1578
RA_OF_ASC_NODE = 242.8514
ARG_OF_PERICENTER = 73.3127
MEAN_ANOMALY   = 27.1885

EPHEMERIS_TYPE = 0
CLASSIFICATION_TYPE = U
NORAD_CAT_ID   = 68278
ELEMENT_SET_NO = 999
REV_AT_EPOCH   = 267
BSTAR          = -.27721871E-2
MEAN_MOTION_DOT = -.1268859E-1
MEAN_MOTION_DDOT = .49875056E-3

CCSDS_OMM_VERS = 2.0
CREATION_DATE  = 
ORIGINATOR     = 

OBJECT_NAME    = STARLINK-36934
OBJECT_ID      = 2026-055T
CENTER_NAME    = EARTH
REF_FRAME      = TEME
TIME_SYSTEM    = UTC
MEAN_ELEMENT_THEORY = SGP/SGP4

EPOCH          = 2026-03-28T14:00:01.999872
MEAN_MOTION    = 15.97469936
ECCENTRICITY   = .0000882
INCLINATION    = 53.1578
RA_OF_ASC_NODE = 242.8576
ARG_OF_PERICENTER = 68.7184
MEAN_ANOMALY   = 28.6617

EPHEMERIS_TYPE = 0
CLASSIFICATION_TYPE = U
NORAD_CAT_ID   = 68279
ELEMENT_SET_NO = 999
REV_AT_EPOCH   = 267
BSTAR          = -.27803618E-2
MEAN_MOTION_DOT = -.1264672E-1
MEAN_MOTION_DDOT = .4951718E-3

CCSDS_OMM_VERS = 2.0
CREATION_DATE  = 
ORIGINATOR     = 

OBJECT_NAME    = STARLINK-37070
OBJECT_ID      = 2026-055U
CENTER_NAME    = EARTH
REF_FRAME      = TEME
TIME_SYSTEM    = UTC
MEAN_ELEMENT_THEORY = SGP/SGP4

EPOCH          = 2026-03-28T14:00:01.999872
MEAN_MOTION    = 15.97829778
ECCENTRICITY   = .00008384
INCLINATION    = 53.1580
RA_OF_ASC_NODE = 242.8366
ARG_OF_PERICENTER = 76.1500
MEAN_ANOMALY   = 31.2047

EPHEMERIS_TYPE = 0
CLASSIFICATION_TYPE = U
NORAD_CAT_ID   = 68280
ELEMENT_SET_NO = 999
REV_AT_EPOCH   = 267
BSTAR          = -.27473534E-2
MEAN_MOTION_DOT = -.1274749E-1
MEAN_MOTION_DDOT = .50426997E-3

CCSDS_OMM_VERS = 2.0
CREATION_DATE  = 
ORIGINATOR     = 

OBJECT_NAME    = STARLINK-37134
OBJECT_ID      = 2026-055V
CENTER_NAME    = EARTH
REF_FRAME      = TEME
TIME_SYSTEM    = UTC
MEAN_ELEMENT_THEORY = SGP/SGP4

EPOCH          = 2026-03-28T14:00:01.999872
MEAN_MOTION    = 15.98075737
ECCENTRICITY   = .00008085
INCLINATION    = 53.1576
RA_OF_ASC_NODE = 242.8227
ARG_OF_PERICENTER = 72.9895
MEAN_ANOMALY   = 41.1194

EPHEMERIS_TYPE = 0
CLASSIFICATION_TYPE = U
NORAD_CAT_ID   = 68281
ELEMENT_SET_NO = 999
REV_AT_EPOCH   = 267
BSTAR          = -.27079955E-2
MEAN_MOTION_DOT = -.1273839E-1
MEAN_MOTION_DDOT = .50491489E-3

CCSDS_OMM_VERS = 2.0
CREATION_DATE  = 
ORIGINATOR     = 

OBJECT_NAME    = STARLINK-37160
OBJECT_ID      = 2026-055W
CENTER_NAME    = EARTH
REF_FRAME      = TEME
TIME_SYSTEM    = UTC
MEAN_ELEMENT_THEORY = SGP/SGP4

EPOCH          = 2026-03-28T14:00:01.999872
MEAN_MOTION    = 15.97955024
ECCENTRICITY   = .00008123
INCLINATION    = 53.1578
RA_OF_ASC_NODE = 242.8300
ARG_OF_PERICENTER = 71.5851
MEAN_ANOMALY   = 39.3045

EPHEMERIS_TYPE = 0
CLASSIFICATION_TYPE = U
NORAD_CAT_ID   = 68282
ELEMENT_SET_NO = 999
REV_AT_EPOCH   = 267
BSTAR          = -.27275721E-2
MEAN_MOTION_DOT = -.127443E-1
MEAN_MOTION_DDOT = .50470215E-3

CCSDS_OMM_VERS = 2.0
CREATION_DATE  = 
ORIGINATOR     = 

OBJECT_NAME    = STARLINK-37124
OBJECT_ID      = 2026-055X
CENTER_NAME    = EARTH
REF_FRAME      = TEME
TIME_SYSTEM    = UTC
MEAN_ELEMENT_THEORY = SGP/SGP4

EPOCH          = 2026-03-28T14:00:01.999872
MEAN_MOTION    = 15.98189182
ECCENTRICITY   = .00008103
INCLINATION    = 53.1577
RA_OF_ASC_NODE = 242.8173
ARG_OF_PERICENTER = 80.9040
MEAN_ANOMALY   = 36.0130

EPHEMERIS_TYPE = 0
CLASSIFICATION_TYPE = U
NORAD_CAT_ID   = 68283
ELEMENT_SET_NO = 999
REV_AT_EPOCH   = 267
BSTAR          = -.26851378E-2
MEAN_MOTION_DOT = -.1271149E-1
MEAN_MOTION_DDOT = .50357573E-3

CCSDS_OMM_VERS = 2.0
CREATION_DATE  = 
ORIGINATOR     = 

OBJECT_NAME    = STARLINK-37159
OBJECT_ID      = 2026-055Y
CENTER_NAME    = EARTH
REF_FRAME      = TEME
TIME_SYSTEM    = UTC
MEAN_ELEMENT_THEORY = SGP/SGP4

EPOCH          = 2026-03-28T14:00:01.999872
MEAN_MOTION    = 15.98317279
ECCENTRICITY   = .00008687
INCLINATION    = 53.1578
RA_OF_ASC_NODE = 242.8099
ARG_OF_PERICENTER = 88.0761
MEAN_ANOMALY   = 32.2795

EPHEMERIS_TYPE = 0
CLASSIFICATION_TYPE = U
NORAD_CAT_ID   = 68284
ELEMENT_SET_NO = 999
REV_AT_EPOCH   = 267
BSTAR          = -.26591861E-2
MEAN_MOTION_DOT = -.1267964E-1
MEAN_MOTION_DDOT = .50195704E-3

CCSDS_OMM_VERS = 2.0
CREATION_DATE  = 
ORIGINATOR     = 

OBJECT_NAME    = STARLINK-36725
OBJECT_ID      = 2026-055Z
CENTER_NAME    = EARTH
REF_FRAME      = TEME
TIME_SYSTEM    = UTC
MEAN_ELEMENT_THEORY = SGP/SGP4

EPOCH          = 2026-03-28T14:00:01.999872
MEAN_MOTION    = 15.98430833
ECCENTRICITY   = .00008796
INCLINATION    = 53.1574
RA_OF_ASC_NODE = 242.8038
ARG_OF_PERICENTER = 68.0674
MEAN_ANOMALY   = 55.0463

EPHEMERIS_TYPE = 0
CLASSIFICATION_TYPE = U
NORAD_CAT_ID   = 68285
ELEMENT_SET_NO = 999
REV_AT_EPOCH   = 267
BSTAR          = -.26363116E-2
MEAN_MOTION_DOT = -.1265117E-1
MEAN_MOTION_DDOT = .50050559E-3

CCSDS_OMM_VERS = 2.0
CREATION_DATE  = 
ORIGINATOR     = 

OBJECT_NAME    = STARLINK-36998
OBJECT_ID      = 2026-055AA
CENTER_NAME    = EARTH
REF_FRAME      = TEME
TIME_SYSTEM    = UTC
MEAN_ELEMENT_THEORY = SGP/SGP4

EPOCH          = 2026-03-28T14:00:01.999872
MEAN_MOTION    = 15.98703808
ECCENTRICITY   = .00008544
INCLINATION    = 53.1582
RA_OF_ASC_NODE = 242.7908
ARG_OF_PERICENTER = 76.7497
MEAN_ANOMALY   = 53.2359

EPHEMERIS_TYPE = 0
CLASSIFICATION_TYPE = U
NORAD_CAT_ID   = 68286
ELEMENT_SET_NO = 999
REV_AT_EPOCH   = 267
BSTAR          = -.26059944E-2
MEAN_MOTION_DOT = -.1269827E-1
MEAN_MOTION_DDOT = .50536078E-3

CCSDS_OMM_VERS = 2.0
CREATION_DATE  = 
ORIGINATOR     = 

OBJECT_NAME    = STARLINK-37165
OBJECT_ID      = 2026-055AB
CENTER_NAME    = EARTH
REF_FRAME      = TEME
TIME_SYSTEM    = UTC
MEAN_ELEMENT_THEORY = SGP/SGP4

EPOCH          = 2026-03-28T14:00:01.999872
MEAN_MOTION    = 15.98837283
ECCENTRICITY   = .00008185
INCLINATION    = 53.1578
RA_OF_ASC_NODE = 242.7828
ARG_OF_PERICENTER = 67.8748
MEAN_ANOMALY   = 65.2995

EPHEMERIS_TYPE = 0
CLASSIFICATION_TYPE = U
NORAD_CAT_ID   = 68287
ELEMENT_SET_NO = 999
REV_AT_EPOCH   = 267
BSTAR          = -.25867002E-2
MEAN_MOTION_DOT = -.126993E-1
MEAN_MOTION_DDOT = .50615086E-3

