STARLINK-37125          
1 68276U 26055Q   26087.58335648 -.01262142  49273-3 -27940-2 0  9994
2 68276  53.1579 242.8650 0000876  64.2513  29.3731 15.97344678  2674
STARLINK-36989          
1 68277U 26055R   26087.58335648 -.01267478  49835-3 -27518-2 0  9997
2 68277  53.1579 242.8444 0000728  76.1707  27.4180 15.97696608  2679
STARLINK-36982          
1 68278U 26055S   26087.58335648 -.01268859  49875-3 -27722-2 0  9993
2 68278  53.1578 242.8514 0000778  73.3127  27.1885 15.97583556  2673
STARLINK-36934          
1 68279U 26055T   26087.58335648 -.01264672  49517-3 -27804-2 0  9997
2 68279  53.1578 242.8576 0000882  68.7184  28.6617 15.97469936  2673
STARLINK-37070          
1 68280U 26055U   26087.58335648 -.01274749  50427-3 -27474-2 0  9990
2 68280  53.1580 242.8366 0000838  76.1500  31.2047 15.97829778  2672
STARLINK-37134          
1 68281U 26055V   26087.58335648 -.01273839  50491-3 -27080-2 0  9994
2 68281  53.1576 242.8227 0000808  72.9895  41.1194 15.98075737  2674
STARLINK-37160          
1 68282U 26055W   26087.58335648 -.01274430  50470-3 -27276-2 0  9997
2 68282  53.1578 242.8300 0000812  71.5851  39.3045 15.97955024  2670
STARLINK-37124          
1 68283U 26055X   26087.58335648 -.01271149  50358-3 -26851-2 0  9995
2 68283  53.1577 242.8173 0000810  80.9040  36.0130 15.98189182  2674
STARLINK-37159          
1 68284U 26055Y   26087.58335648 -.01267964  50196-3 -26592-2 0  9998
2 68284  53.1578 242.8099 0000868  88.0761  32.2795 15.98317279  2670
STARLINK-36725          
1 68285U 26055Z   26087.58335648 -.01265117  50051-3 -26363-2 0  9993
2 68285  53.1574 242.8038 0000879  68.0674  55.0463 15.98430833  2670
STARLINK-36998          
1 68286U 26055AA  26087.58335648 -.01269827  50536-3 -26060-2 0  9998
2 68286  53.1582 242.7908 0000854  76.7497  53.2359 15.98703808  2676
STARLINK-37165          
1 68287U 26055AB  26087.58335648 -.01269930  50615-3 -25867-2 0  9996
2 68287  53.1578 242.7828 0000818  67.8748  65.2995 15.98837283  2677
